NOAA 2 (ITOS-D)         
1 06235U 72082A   26062.68122314 -.00000032  00000+0  88374-4 0  9997
2 06235 102.0168  80.0662 0004000  16.5610  98.3303 12.53211619441737
OSCAR 7 (AO-7)          
1 07530U 74089B   26062.66303753 -.00000044  00000+0  15322-4 0  9997
2 07530 101.9969  74.7880 0012027 333.8373 145.2081 12.53696252347295
TIROS N                 
1 11060U 78096A   26062.67848851  .00000227  00000+0  12799-3 0  9992
2 11060  98.4639  88.4649 0010402 182.1762 177.9371 14.19335292663786
PHASE 3B (AO-10)        
1 14129U 83058B   26061.53393855 -.00000164  00000+0  00000+0 0  9997
2 14129  25.9320 237.4860 6049007  86.0782 336.7646  2.05874052293290
HILAT                   
1 14154U 83063A   26062.66510156  .00000536  00000+0  16864-3 0  9992
2 14154  82.0206 259.1233 0038276 250.0016 178.9209 14.38628673232416
UOSAT 2 (UO-11)         
1 14781U 84021B   26062.49736568  .00002024  00000+0  21301-3 0  9997
2 14781  97.7937  29.3491 0007858 162.1253 198.0243 14.90478819241387
NOAA 9                  
1 15427U 84123A   26062.72490721  .00000145  00000+0  95370-4 0  9992
2 15427  99.1101  86.8671 0013708 289.8193 183.1605 14.17036595128485
GEOSAT                  
1 15595U 85021A   26062.34517085  .00000344  00000+0  15236-3 0  9990
2 15595 108.0477 221.1438 0002482 261.6152  98.4709 14.39906842147537
EUTELSAT 1-F4 (ECS 4)   
1 18351U 87078B   26062.48224150 -.00000141  00000+0  00000+0 0  9995
2 18351  13.9034 342.8620 0011534  24.9766 160.8519  0.98690192125713
PACSAT (AO-16)          
1 20439U 90005D   26062.67960112  .00000195  00000+0  86647-4 0  9999
2 20439  98.8658  95.8219 0010684 175.7404 303.4922 14.33899133886813
LUSAT (LO-19)           
1 20442U 90005G   26062.62073614  .00000201  00000+0  88596-4 0  9993
2 20442  98.8939  81.4758 0012108 151.3360 208.8491 14.34085025887269
IRS-1B                  
1 21688U 91061A   26062.62529280 -.00000079  00000+0 -22759-4 0  9998
2 21688  99.4143  67.9304 0023635 291.0808 178.7348 13.97859786653749
COSMOS 2197             
1 22034U 92042A   26062.73847933  .00000053  00000+0  23234-3 0  9992
2 22034  82.5932 296.3351 0012946 150.6037 272.4026 12.64247971551967
PEGASUS R/B             
1 22491U 93009C   26062.29684816  .00001596  00000+0  29499-3 0  9995
2 22491  24.9787  36.3010 0044232  45.3021 315.1082 14.57808253754166
EYESAT A (AO-27)        
1 22825U 93061C   26062.69345401  .00000155  00000+0  76005-4 0  9998
2 22825  98.6994 130.0988 0009211  55.1566 305.0482 14.30910753691917
ITAMSAT (IO-26)         
1 22826U 93061D   26062.77409370  .00000180  00000+0  84654-4 0  9991
2 22826  98.6943 130.0863 0009515  39.5113 320.6761 14.31334617692234
RADIO ROSTO (RS15)      
1 23439U 94085A   26062.75336236 -.00000010  00000+0  91777-3 0  9993
2 23439  64.8146 113.7348 0152451  23.1474 337.6224 11.27583827284014
